[{"OBJECT_NAME":"GEESAT-4 07","OBJECT_ID":"2025-170G","EPOCH":"2026-03-09T22:24:24.561504","MEAN_MOTION":14.83629867,"ECCENTRICITY":0.00182752,"INCLINATION":49.9909,"RA_OF_ASC_NODE":274.3953,"ARG_OF_PERICENTER":33.3608,"MEAN_ANOMALY":326.8478,"EPHEMERIS_TYPE":0,"CLASSIFICATION_TYPE":"U","NORAD_CAT_ID":65125,"ELEMENT_SET_NO":999,"REV_AT_EPOCH":3169,"BSTAR":0.00036149083,"MEAN_MOTION_DOT":2.793e-5,"MEAN_MOTION_DDOT":0},{"OBJECT_NAME":"CZ-4B DEB","OBJECT_ID":"1999-057DJ","EPOCH":"2026-03-09T22:28:39.013824","MEAN_MOTION":14.77580784,"ECCENTRICITY":0.0067564,"INCLINATION":98.6394,"RA_OF_ASC_NODE":180.2386,"ARG_OF_PERICENTER":250.3278,"MEAN_ANOMALY":227.5736,"EPHEMERIS_TYPE":0,"CLASSIFICATION_TYPE":"U","NORAD_CAT_ID":26220,"ELEMENT_SET_NO":999,"REV_AT_EPOCH":39541,"BSTAR":0.00020630452,"MEAN_MOTION_DOT":1.466e-5,"MEAN_MOTION_DDOT":0}]
